[{"OBJECT_NAME":"STARLINK-30586","OBJECT_ID":"2023-160K","EPOCH":"2025-10-01T23:29:39.806016","MEAN_MOTION":15.02533887,"ECCENTRICITY":0.0001104,"INCLINATION":43.0011,"RA_OF_ASC_NODE":222.6493,"ARG_OF_PERICENTER":274.6023,"MEAN_ANOMALY":85.4693,"EPHEMERIS_TYPE":0,"CLASSIFICATION_TYPE":"U","NORAD_CAT_ID":58084,"ELEMENT_SET_NO":999,"REV_AT_EPOCH":10904,"BSTAR":-6.342e-5,"MEAN_MOTION_DOT":-1.06e-5,"MEAN_MOTION_DDOT":0},{"OBJECT_NAME":"STARLINK-30609","OBJECT_ID":"2023-160L","EPOCH":"2025-10-01T23:24:52.902720","MEAN_MOTION":15.02517761,"ECCENTRICITY":0.0001931,"INCLINATION":43.006,"RA_OF_ASC_NODE":222.6251,"ARG_OF_PERICENTER":265.9399,"MEAN_ANOMALY":94.1222,"EPHEMERIS_TYPE":0,"CLASSIFICATION_TYPE":"U","NORAD_CAT_ID":58085,"ELEMENT_SET_NO":999,"REV_AT_EPOCH":10904,"BSTAR":-0.00014088,"MEAN_MOTION_DOT":-2.105e-5,"MEAN_MOTION_DDOT":0},{"OBJECT_NAME":"STARLINK-30583","OBJECT_ID":"2023-160M","EPOCH":"2025-10-01T23:20:04.458048","MEAN_MOTION":15.02534952,"ECCENTRICITY":0.0001505,"INCLINATION":43.001,"RA_OF_ASC_NODE":222.5996,"ARG_OF_PERICENTER":269.7169,"MEAN_ANOMALY":90.3501,"EPHEMERIS_TYPE":0,"CLASSIFICATION_TYPE":"U","NORAD_CAT_ID":58086,"ELEMENT_SET_NO":999,"REV_AT_EPOCH":10904,"BSTAR":-0.00020784,"MEAN_MOTION_DOT":-3.01e-5,"MEAN_MOTION_DDOT":0},{"OBJECT_NAME":"STARLINK-30557","OBJECT_ID":"2023-160N","EPOCH":"2025-10-01T23:18:29.107008","MEAN_MOTION":15.02506045,"ECCENTRICITY":0.0001292,"INCLINATION":42.9989,"RA_OF_ASC_NODE":222.5906,"ARG_OF_PERICENTER":271.0573,"MEAN_ANOMALY":89.0121,"EPHEMERIS_TYPE":0,"CLASSIFICATION_TYPE":"U","NORAD_CAT_ID":58087,"ELEMENT_SET_NO":999,"REV_AT_EPOCH":10904,"BSTAR":-0.0005115,"MEAN_MOTION_DOT":-7.1e-5,"MEAN_MOTION_DDOT":0},{"OBJECT_NAME":"STARLINK-30591","OBJECT_ID":"2023-160P","EPOCH":"2025-10-02T03:57:41.749920","MEAN_MOTION":15.02518672,"ECCENTRICITY":0.0001252,"INCLINATION":43.0006,"RA_OF_ASC_NODE":221.4662,"ARG_OF_PERICENTER":255.5758,"MEAN_ANOMALY":104.4945,"EPHEMERIS_TYPE":0,"CLASSIFICATION_TYPE":"U","NORAD_CAT_ID":58088,"ELEMENT_SET_NO":999,"REV_AT_EPOCH":10907,"BSTAR":-6.2457e-5,"MEAN_MOTION_DOT":-1.047e-5,"MEAN_MOTION_DDOT":0},{"OBJECT_NAME":"STARLINK-30584","OBJECT_ID":"2023-160Q","EPOCH":"2025-10-02T03:52:52.195008","MEAN_MOTION":15.02538596,"ECCENTRICITY":0.000122,"INCLINATION":43.0028,"RA_OF_ASC_NODE":221.4412,"ARG_OF_PERICENTER":280.1461,"MEAN_ANOMALY":79.9244,"EPHEMERIS_TYPE":0,"CLASSIFICATION_TYPE":"U","NORAD_CAT_ID":58089,"ELEMENT_SET_NO":999,"REV_AT_EPOCH":10907,"BSTAR":0.0003164,"MEAN_MOTION_DOT":4.073e-5,"MEAN_MOTION_DDOT":0},{"OBJECT_NAME":"STARLINK-30590","OBJECT_ID":"2023-160R","EPOCH":"2025-10-02T04:02:27.606912","MEAN_MOTION":15.0253395,"ECCENTRICITY":9.14e-5,"INCLINATION":43.0028,"RA_OF_ASC_NODE":221.4932,"ARG_OF_PERICENTER":273.3236,"MEAN_ANOMALY":86.7502,"EPHEMERIS_TYPE":0,"CLASSIFICATION_TYPE":"U","NORAD_CAT_ID":58090,"ELEMENT_SET_NO":999,"REV_AT_EPOCH":10907,"BSTAR":6.1895e-5,"MEAN_MOTION_DOT":6.33e-6,"MEAN_MOTION_DDOT":0},{"OBJECT_NAME":"STARLINK-30608","OBJECT_ID":"2023-160S","EPOCH":"2025-10-02T03:48:04.207392","MEAN_MOTION":15.02536376,"ECCENTRICITY":0.0001346,"INCLINATION":43.0044,"RA_OF_ASC_NODE":221.4159,"ARG_OF_PERICENTER":267.1792,"MEAN_ANOMALY":92.8897,"EPHEMERIS_TYPE":0,"CLASSIFICATION_TYPE":"U","NORAD_CAT_ID":58091,"ELEMENT_SET_NO":999,"REV_AT_EPOCH":10907,"BSTAR":3.0671e-5,"MEAN_MOTION_DOT":2.11e-6,"MEAN_MOTION_DDOT":0},{"OBJECT_NAME":"STARLINK-30615","OBJECT_ID":"2023-160T","EPOCH":"2025-10-02T03:41:42.173376","MEAN_MOTION":15.02602537,"ECCENTRICITY":5.17e-5,"INCLINATION":42.9959,"RA_OF_ASC_NODE":221.374,"ARG_OF_PERICENTER":230.1714,"MEAN_ANOMALY":129.9083,"EPHEMERIS_TYPE":0,"CLASSIFICATION_TYPE":"U","NORAD_CAT_ID":58092,"ELEMENT_SET_NO":999,"REV_AT_EPOCH":10907,"BSTAR":-0.0012965,"MEAN_MOTION_DOT":-0.00017703,"MEAN_MOTION_DDOT":0},{"OBJECT_NAME":"STARLINK-30578","OBJECT_ID":"2023-160U","EPOCH":"2025-10-02T03:09:53.233632","MEAN_MOTION":15.02532,"ECCENTRICITY":9.55e-5,"INCLINATION":43.0027,"RA_OF_ASC_NODE":222.0665,"ARG_OF_PERICENTER":271.1924,"MEAN_ANOMALY":88.8808,"EPHEMERIS_TYPE":0,"CLASSIFICATION_TYPE":"U","NORAD_CAT_ID":58093,"ELEMENT_SET_NO":999,"REV_AT_EPOCH":10906,"BSTAR":-7.6746e-5,"MEAN_MOTION_DOT":-1.24e-5,"MEAN_MOTION_DDOT":0},{"OBJECT_NAME":"STARLINK-30574","OBJECT_ID":"2023-160V","EPOCH":"2025-10-02T03:38:29.321664","MEAN_MOTION":15.02527575,"ECCENTRICITY":9.34e-5,"INCLINATION":43.0019,"RA_OF_ASC_NODE":221.3665,"ARG_OF_PERICENTER":265.1253,"MEAN_ANOMALY":94.9483,"EPHEMERIS_TYPE":0,"CLASSIFICATION_TYPE":"U","NORAD_CAT_ID":58094,"ELEMENT_SET_NO":999,"REV_AT_EPOCH":10907,"BSTAR":4.3213e-5,"MEAN_MOTION_DOT":3.8e-6,"MEAN_MOTION_DDOT":0},{"OBJECT_NAME":"STARLINK-30570","OBJECT_ID":"2023-160W","EPOCH":"2025-10-02T03:33:41.467968","MEAN_MOTION":15.02545644,"ECCENTRICITY":4.8e-5,"INCLINATION":42.9981,"RA_OF_ASC_NODE":221.3412,"ARG_OF_PERICENTER":224.315,"MEAN_ANOMALY":135.7654,"EPHEMERIS_TYPE":0,"CLASSIFICATION_TYPE":"U","NORAD_CAT_ID":58095,"ELEMENT_SET_NO":999,"REV_AT_EPOCH":10907,"BSTAR":-1.0263e-5,"MEAN_MOTION_DOT":-3.42e-6,"MEAN_MOTION_DDOT":0},{"OBJECT_NAME":"STARLINK-30581","OBJECT_ID":"2023-160X","EPOCH":"2025-10-02T03:24:15.950592","MEAN_MOTION":15.02529536,"ECCENTRICITY":0.0001264,"INCLINATION":43.0028,"RA_OF_ASC_NODE":222.1329,"ARG_OF_PERICENTER":257.1453,"MEAN_ANOMALY":102.9248,"EPHEMERIS_TYPE":0,"CLASSIFICATION_TYPE":"U","NORAD_CAT_ID":58096,"ELEMENT_SET_NO":999,"REV_AT_EPOCH":10906,"BSTAR":-2.1027e-5,"MEAN_MOTION_DOT":-4.88e-6,"MEAN_MOTION_DDOT":0},{"OBJECT_NAME":"STARLINK-30594","OBJECT_ID":"2023-161A","EPOCH":"2025-10-02T01:12:29.382912","MEAN_MOTION":15.30170265,"ECCENTRICITY":0.0001152,"INCLINATION":53.1603,"RA_OF_ASC_NODE":182.3695,"ARG_OF_PERICENTER":105.3952,"MEAN_ANOMALY":254.7176,"EPHEMERIS_TYPE":0,"CLASSIFICATION_TYPE":"U","NORAD_CAT_ID":58097,"ELEMENT_SET_NO":999,"REV_AT_EPOCH":11013,"BSTAR":-1.8351e-5,"MEAN_MOTION_DOT":-9.02e-6,"MEAN_MOTION_DDOT":0},{"OBJECT_NAME":"STARLINK-30614","OBJECT_ID":"2023-161B","EPOCH":"2025-10-02T01:07:55.532928","MEAN_MOTION":15.30160696,"ECCENTRICITY":0.000128,"INCLINATION":53.1579,"RA_OF_ASC_NODE":182.3496,"ARG_OF_PERICENTER":95.6133,"MEAN_ANOMALY":264.5013,"EPHEMERIS_TYPE":0,"CLASSIFICATION_TYPE":"U","NORAD_CAT_ID":58098,"ELEMENT_SET_NO":999,"REV_AT_EPOCH":11013,"BSTAR":-4.1025e-5,"MEAN_MOTION_DOT":-1.572e-5,"MEAN_MOTION_DDOT":0},{"OBJECT_NAME":"STARLINK-30607","OBJECT_ID":"2023-161C","EPOCH":"2025-10-01T23:38:32.214912","MEAN_MOTION":15.30181307,"ECCENTRICITY":0.00010418,"INCLINATION":53.1595,"RA_OF_ASC_NODE":172.6732,"ARG_OF_PERICENTER":78.203,"MEAN_ANOMALY":281.9088,"EPHEMERIS_TYPE":0,"CLASSIFICATION_TYPE":"U","NORAD_CAT_ID":58099,"ELEMENT_SET_NO":999,"REV_AT_EPOCH":11025,"BSTAR":-9.335164e-6,"MEAN_MOTION_DOT":-6.35e-6,"MEAN_MOTION_DDOT":0},{"OBJECT_NAME":"STARLINK-30600","OBJECT_ID":"2023-161D","EPOCH":"2025-10-02T01:21:36.804672","MEAN_MOTION":15.3012617,"ECCENTRICITY":0.0001388,"INCLINATION":53.1598,"RA_OF_ASC_NODE":182.3958,"ARG_OF_PERICENTER":87.3822,"MEAN_ANOMALY":272.7337,"EPHEMERIS_TYPE":0,"CLASSIFICATION_TYPE":"U","NORAD_CAT_ID":58100,"ELEMENT_SET_NO":999,"REV_AT_EPOCH":11013,"BSTAR":0.00028559,"MEAN_MOTION_DOT":8.089e-5,"MEAN_MOTION_DDOT":0}]
