STARLINK-30586          
1 58084U 23160K   25274.97893294 -.00001060  00000+0 -63420-4 0  9995
2 58084  43.0011 222.6493 0001104 274.6023  85.4693 15.02533887109045
STARLINK-30609          
1 58085U 23160L   25274.97561230 -.00002105  00000+0 -14088-3 0  9994
2 58085  43.0060 222.6251 0001931 265.9399  94.1222 15.02517761109047
STARLINK-30583          
1 58086U 23160M   25274.97227382 -.00003010  00000+0 -20784-3 0  9998
2 58086  43.0010 222.5996 0001505 269.7169  90.3501 15.02534952109041
STARLINK-30557          
1 58087U 23160N   25274.97117022 -.00007100  00000+0 -51150-3 0  9993
2 58087  42.9989 222.5906 0001292 271.0573  89.0121 15.02506045109049
STARLINK-30591          
1 58088U 23160P   25275.16506655 -.00001047  00000+0 -62457-4 0  9997
2 58088  43.0006 221.4662 0001252 255.5758 104.4945 15.02518672109075
STARLINK-30584          
1 58089U 23160Q   25275.16171522  .00004073  00000+0  31640-3 0  9998
2 58089  43.0028 221.4412 0001220 280.1461  79.9244 15.02538596109078
STARLINK-30590          
1 58090U 23160R   25275.16837508  .00000633  00000+0  61895-4 0  9997
2 58090  43.0028 221.4932 0000914 273.3236  86.7502 15.02533950109072
STARLINK-30608          
1 58091U 23160S   25275.15838203  .00000211  00000+0  30671-4 0  9990
2 58091  43.0044 221.4159 0001346 267.1792  92.8897 15.02536376109070
STARLINK-30615          
1 58092U 23160T   25275.15396034 -.00017703  00000+0 -12965-2 0  9992
2 58092  42.9959 221.3740 0000517 230.1714 129.9083 15.02602537109074
STARLINK-30578          
1 58093U 23160U   25275.13186613 -.00001240  00000+0 -76746-4 0  9999
2 58093  43.0027 222.0665 0000955 271.1924  88.8808 15.02532000109065
STARLINK-30574          
1 58094U 23160V   25275.15172826  .00000380  00000+0  43213-4 0  9998
2 58094  43.0019 221.3665 0000934 265.1253  94.9483 15.02527575109073
STARLINK-30570          
1 58095U 23160W   25275.14839662 -.00000342  00000+0 -10263-4 0  9995
2 58095  42.9981 221.3412 0000480 224.3150 135.7654 15.02545644109070
STARLINK-30581          
1 58096U 23160X   25275.14185128 -.00000488  00000+0 -21027-4 0  9998
2 58096  43.0028 222.1329 0001264 257.1453 102.9248 15.02529536109068
STARLINK-30594          
1 58097U 23161A   25275.05034008 -.00000902  00000+0 -18351-4 0  9997
2 58097  53.1603 182.3695 0001152 105.3952 254.7176 15.30170265110135
STARLINK-30614          
1 58098U 23161B   25275.04717052 -.00001572  00000+0 -41025-4 0  9992
2 58098  53.1579 182.3496 0001280  95.6133 264.5013 15.30160696110137
STARLINK-30607          
1 58099U 23161C   25274.98509508 -.00000635  00000+0 -93352-5 0  9990
2 58099  53.1595 172.6732 0001041  78.2030 281.9088 15.30181307110259
STARLINK-30600          
1 58100U 23161D   25275.05667598  .00008089  00000+0  28559-3 0  9990
2 58100  53.1598 182.3958 0001388  87.3822 272.7337 15.30126170110136
